[{"OBJECT_NAME":"STARLINK-36586","OBJECT_ID":"2026-014S","EPOCH":"2026-03-09T15:40:34.371840","MEAN_MOTION":15.7520928,"ECCENTRICITY":9.53e-5,"INCLINATION":97.2836,"RA_OF_ASC_NODE":313.676,"ARG_OF_PERICENTER":29.3985,"MEAN_ANOMALY":330.7334,"EPHEMERIS_TYPE":0,"CLASSIFICATION_TYPE":"U","NORAD_CAT_ID":67548,"ELEMENT_SET_NO":999,"REV_AT_EPOCH":857,"BSTAR":0.0011796,"MEAN_MOTION_DOT":0.00179715,"MEAN_MOTION_DDOT":0},{"OBJECT_NAME":"THORAD AGENA D DEB","OBJECT_ID":"1970-025PF","EPOCH":"2026-03-08T02:58:32.488032","MEAN_MOTION":15.64290563,"ECCENTRICITY":0.00166136,"INCLINATION":99.9335,"RA_OF_ASC_NODE":127.481,"ARG_OF_PERICENTER":247.6747,"MEAN_ANOMALY":112.2743,"EPHEMERIS_TYPE":0,"CLASSIFICATION_TYPE":"U","NORAD_CAT_ID":17717,"ELEMENT_SET_NO":999,"REV_AT_EPOCH":15016,"BSTAR":0.0052904272,"MEAN_MOTION_DOT":0.00540965,"MEAN_MOTION_DDOT":0}]
